NORAD_CAT_ID,OBJECT_NAME,OBJECT_TYPE,EPOCH,MEAN_MOTION,ECCENTRICITY,INCLINATION,RA_OF_ASC_NODE,ARG_OF_PERICENTER,MEAN_ANOMALY,BSTAR,MEAN_MOTION_DOT,MEAN_MOTION_DDOT,TLE_LINE0,TLE_LINE1,TLE_LINE2,SEMIMAJOR_AXIS,PERIOD,APOGEE,PERIGEE,DECAYED
53421.0,STARLINK-4545,PAYLOAD,2024-02-26 03:05:43,15.08839406,0.0001489,53.2161,207.6036,92.5787,267.5375,1.4119e-05,-6.3e-07,0.0,0 STARLINK-4545,1 53421U 22097AK  24057.12898084 -.00000063  00000-0  14119-4 0  9993,2 53421  53.2161 207.6036 0001489  92.5787 267.5375 15.08839406 86068,6917.882,95.438,540.777,538.717,0.0
53421.0,STARLINK-4545,PAYLOAD,2024-02-26 14:13:26,15.08830955,0.0001651,53.2161,205.5217,90.2996,269.8185,-6.9086e-06,-3.98e-06,0.0,0 STARLINK-4545,1 53421U 22097AK  24057.59267005 -.00000398  00000-0 -69086-5 0  9993,2 53421  53.2161 205.5217 0001651  90.2996 269.8185 15.08830955 86596,6917.908,95.438,540.915,538.631,0.0
53421.0,STARLINK-4545,PAYLOAD,2024-02-26 18:59:35,15.08835209,0.0001506,53.2156,204.6291,95.6868,264.4296,6.0563e-05,6.76e-06,0.0,0 STARLINK-4545,1 53421U 22097AK  24057.79138860  .00000676  00000-0  60563-4 0  9998,2 53421  53.2156 204.6291 0001506  95.6868 264.4296 15.08835209 86162,6917.895,95.438,540.802,538.718,0.0
53421.0,STARLINK-4545,PAYLOAD,2024-02-27 14:04:13,15.08847739,0.0001404,53.2149,201.0636,105.727,254.3877,0.0002878,4.296e-05,0.0,0 STARLINK-4545,1 53421U 22097AK  24058.58626396  .00004296  00000-0  28780-3 0  9998,2 53421  53.2149 201.0636 0001404 105.7270 254.3877 15.08847739 86743,6917.857,95.437,540.693,538.75,0.0
53421.0,STARLINK-4545,PAYLOAD,2024-02-27 18:50:22,15.08851614,0.0001402,53.2159,200.1713,94.3471,265.7681,0.00048794,7.489e-05,0.0,0 STARLINK-4545,1 53421U 22097AK  24058.78498432  .00007489  00000-0  48794-3 0  9992,2 53421  53.2159 200.1713 0001402  94.3471 265.7681 15.08851614 86313,6917.845,95.437,540.68,538.74,0.0
53421.0,STARLINK-4545,PAYLOAD,2024-02-28 02:47:18,15.08838371,0.0001593,53.2158,198.6831,88.4345,271.683,0.0001499,2.098e-05,0.0,0 STARLINK-4545,1 53421U 22097AK  24059.11619000  .00002098  00000-0  14990-3 0  9998,2 53421  53.2158 198.6831 0001593  88.4345 271.6830 15.08838371 86361,6917.885,95.438,540.852,538.648,0.0
53421.0,STARLINK-4545,PAYLOAD,2024-02-28 13:55:00,15.08841633,0.0001817,53.2181,196.5993,87.9623,272.1577,0.00018779,2.702e-05,0.0,0 STARLINK-4545,1 53421U 22097AK  24059.57986950  .00002702  00000-0  18779-3 0  9990,2 53421  53.2181 196.5993 0001817  87.9623 272.1577 15.08841633 86892,6917.875,95.437,540.997,538.483,0.0
53421.0,STARLINK-4545,PAYLOAD,2024-02-28 18:41:09,15.08868558,9.14e-05,53.2151,195.7102,117.3347,242.7738,0.00077115,0.00012016,0.0,0 STARLINK-4545,1 53421U 22097AK  24059.77857803  .00012016  00000-0  77115-3 0  9994,2 53421  53.2151 195.7102 0000914 117.3347 242.7738 15.08868558 86460,6917.793,95.436,540.29,539.026,0.0
53421.0,STARLINK-4545,PAYLOAD,2024-02-29 12:10:24,15.08832329,0.0004039,53.2161,192.4401,0.4488,359.6507,-0.00026106,-4.441e-05,0.0,0 STARLINK-4545,1 53421U 22097AK  24060.50722224 -.00004441  00000-0 -26106-3 0  9994,2 53421  53.2161 192.4401 0004039   0.4488 359.6507 15.08832329 86578,6917.904,95.438,542.563,536.975,0.0
53421.0,STARLINK-4545,PAYLOAD,2024-02-29 15:21:09,15.08829886,0.0001561,53.2163,191.8448,86.471,273.6461,-0.00054333,-8.922e-05,0.0,0 STARLINK-4545,1 53421U 22097AK  24060.63969585 -.00008922  00000-0 -54333-3 0  9992,2 53421  53.2163 191.8448 0001561  86.4710 273.6461 15.08829886 87055,6917.911,95.438,540.856,538.696,0.0
53421.0,STARLINK-4545,PAYLOAD,2024-03-01 13:36:34,15.08832735,0.0001745,53.2166,187.6807,89.8058,270.3134,-5.2235e-05,-1.119e-05,0.0,0 STARLINK-4545,1 53421U 22097AK  24061.56706226 -.00001119  00000-0 -52235-4 0  9997,2 53421  53.2166 187.6807 0001745  89.8058 270.3134 15.08832735 87199,6917.903,95.438,540.975,538.56,0.0
53421.0,STARLINK-4545,PAYLOAD,2024-03-01 15:11:57,15.08829397,0.0001835,53.2167,187.3832,91.0882,269.032,0.00037374,5.663e-05,0.0,0 STARLINK-4545,1 53421U 22097AK  24061.63330518  .00005663  00000-0  37374-3 0  9994,2 53421  53.2167 187.3832 0001835  91.0882 269.0320 15.08829397 87209,6917.913,95.438,541.047,538.508,0.0
53421.0,STARLINK-4545,PAYLOAD,2024-03-02 13:27:22,15.08833443,0.0001831,53.2169,183.2228,91.5693,268.5509,0.00045317,6.93e-05,0.0,0 STARLINK-4545,1 53421U 22097AK  24062.56067597  .00006930  00000-0  45317-3 0  9995,2 53421  53.2169 183.2228 0001831  91.5693 268.5509 15.08833443 87341,6917.9,95.438,541.032,538.499,0.0
53421.0,STARLINK-4545,PAYLOAD,2024-03-02 15:02:45,15.08837011,0.0001835,53.2166,182.9255,91.5801,268.5401,0.00053049,8.164e-05,0.0,0 STARLINK-4545,1 53421U 22097AK  24062.62691559  .00008164  00000-0  53049-3 0  9995,2 53421  53.2166 182.9255 0001835  91.5801 268.5401 15.08837011 86894,6917.89,95.438,541.024,538.485,0.0
53421.0,STARLINK-4545,PAYLOAD,2024-03-03 13:18:09,15.08843832,0.0001854,53.2164,178.7651,97.6054,262.5149,0.00032097,4.824e-05,0.0,0 STARLINK-4545,1 53421U 22097AK  24063.55427462  .00004824  00000-0  32097-3 0  9997,2 53421  53.2164 178.7651 0001854  97.6054 262.5149 15.08843832 87491,6917.869,95.437,541.016,538.451,0.0
53421.0,STARLINK-4545,PAYLOAD,2024-03-04 14:44:18,15.08864088,0.0001524,53.2153,174.0029,80.4126,279.7038,0.00054529,8.407e-05,0.0,0 STARLINK-4545,1 53421U 22097AK  24064.61410208  .00008407  00000-0  54529-3 0  9990,2 53421  53.2153 174.0029 0001524  80.4126 279.7038 15.08864088 87652,6917.807,95.436,540.726,538.617,0.0
53421.0,STARLINK-4545,PAYLOAD,2024-03-05 14:35:06,15.08826097,0.0001454,53.2157,169.5444,104.4803,255.6351,-0.00016607,-2.929e-05,0.0,0 STARLINK-4545,1 53421U 22097AK  24065.60771536 -.00002929  00000-0 -16607-3 0  9994,2 53421  53.2157 169.5444 0001454 104.4803 255.6351 15.08826097 87803,6917.923,95.438,540.794,538.782,0.0
53421.0,STARLINK-4545,PAYLOAD,2024-03-06 11:15:07,15.08841602,0.0001324,53.2162,165.6802,93.2349,266.8795,0.00059534,9.2e-05,0.0,0 STARLINK-4545,1 53421U 22097AK  24066.46883955  .00009200  00000-0  59534-3 0  9991,2 53421  53.2162 165.6802 0001324  93.2349 266.8795 15.08841602 87478,6917.875,95.437,540.656,538.825,0.0
53421.0,STARLINK-4545,PAYLOAD,2024-03-06 12:50:30,15.08848644,0.0001387,53.2155,165.3807,100.4804,259.6345,0.00087054,0.00013597,0.0,0 STARLINK-4545,1 53421U 22097AK  24066.53507813  .00013597  00000-0  87054-3 0  9997,2 53421  53.2155 165.3807 0001387 100.4804 259.6345 15.08848644 87944,6917.854,95.437,540.678,538.759,0.0
53421.0,STARLINK-4545,PAYLOAD,2024-03-07 14:16:40,15.08848455,0.00016,53.2169,160.6197,113.4583,246.6578,0.00038705,5.879e-05,0.0,0 STARLINK-4545,1 53421U 22097AK  24067.59491487  .00005879  00000-0  38705-3 0  9996,2 53421  53.2169 160.6197 0001600 113.4583 246.6578 15.08848455 88108,6917.855,95.437,540.826,538.613,0.0
53421.0,STARLINK-4545,PAYLOAD,2024-03-08 06:10:32,15.08839812,0.000155,53.2174,157.6435,134.4959,225.616,-9.0956e-05,-1.735e-05,0.0,0 STARLINK-4545,1 53421U 22097AK  24068.25731567 -.00001735  00000-0 -90956-4 0  9992,2 53421  53.2174 157.6435 0001550 134.4959 225.6160 15.08839812 87749,6917.881,95.438,540.818,538.674,0.0
53421.0,STARLINK-4545,PAYLOAD,2024-03-08 12:32:04,15.08843049,0.0001241,53.2172,156.4569,103.1692,256.9438,6.6538e-05,7.71e-06,0.0,0 STARLINK-4545,1 53421U 22097AK  24068.52227677  .00000771  00000-0  66538-4 0  9990,2 53421  53.2172 156.4569 0001241 103.1692 256.9438 15.08843049 88244,6917.871,95.437,540.595,538.878,0.0
53421.0,STARLINK-4545,PAYLOAD,2024-03-09 12:22:51,15.08846889,0.0001542,53.2177,152.0,99.3252,260.7915,0.00022357,3.273e-05,0.0,0 STARLINK-4545,1 53421U 22097AK  24069.51587751  .00003273  00000-0  22357-3 0  9992,2 53421  53.2177 152.0000 0001542  99.3252 260.7915 15.08846889 87936,6917.859,95.437,540.791,538.658,0.0
53421.0,STARLINK-4545,PAYLOAD,2024-03-09 21:55:10,15.08843558,0.0001555,53.2168,150.217,102.3542,257.7624,0.00019117,2.756e-05,0.0,0 STARLINK-4545,1 53421U 22097AK  24069.91331806  .00002756  00000-0  19117-3 0  9999,2 53421  53.2168 150.2170 0001555 102.3542 257.7624 15.08843558 88456,6917.87,95.437,540.81,538.659,0.0
53421.0,STARLINK-4545,PAYLOAD,2024-03-10 05:52:06,15.08842265,0.0001776,53.2186,148.7295,91.9196,268.2,0.0001345,1.853e-05,0.0,0 STARLINK-4545,1 53421U 22097AK  24070.24451974  .00001853  00000-0  13450-3 0  9997,2 53421  53.2186 148.7295 0001776  91.9196 268.2000 15.08842265 88043,6917.873,95.437,540.967,538.51,0.0
53421.0,STARLINK-4545,PAYLOAD,2024-03-10 12:13:39,15.08841176,0.0001483,53.2177,147.5409,99.8325,260.2835,0.00012794,1.749e-05,0.0,0 STARLINK-4545,1 53421U 22097AK  24070.50948003  .00001749  00000-0  12794-3 0  9994,2 53421  53.2177 147.5409 0001483  99.8325 260.2835 15.08841176 88546,6917.877,95.437,540.768,538.716,0.0
53421.0,STARLINK-4545,PAYLOAD,2024-03-10 21:45:57,15.08839362,0.0001483,53.2165,145.7572,101.1274,258.9885,3.9165e-05,3.35e-06,0.0,0 STARLINK-4545,1 53421U 22097AK  24070.90691957  .00000335  00000-0  39165-4 0  9993,2 53421  53.2165 145.7572 0001483 101.1274 258.9885 15.08839362 88604,6917.882,95.438,540.773,538.721,0.0
53421.0,STARLINK-4545,PAYLOAD,2024-03-11 12:04:25,15.08847018,0.000135,53.2162,143.0794,92.2292,267.8854,0.00016267,2.302e-05,0.0,0 STARLINK-4545,1 53421U 22097AK  24071.50307657  .00002302  00000-0  16267-3 0  9994,2 53421  53.2162 143.0794 0001350  92.2292 267.8854 15.08847018 88232,6917.859,95.437,540.658,538.79,0.0
53421.0,STARLINK-4545,PAYLOAD,2024-03-12 03:58:17,15.08839739,0.0001832,53.217,140.1066,65.8074,294.311,0.00010091,1.318e-05,0.0,0 STARLINK-4545,1 53421U 22097AK  24072.16548263  .00001318  00000-0  10091-3 0  9992,2 53421  53.2170 140.1066 0001832  65.8074 294.3110 15.08839739 88332,6917.881,95.438,541.014,538.479,0.0
53421.0,STARLINK-4545,PAYLOAD,2024-03-12 11:55:13,15.08838746,0.0001642,53.2167,138.6191,71.3746,288.7425,5.6993e-05,6.19e-06,0.0,0 STARLINK-4545,1 53421U 22097AK  24072.49668286  .00000619  00000-0  56993-4 0  9991,2 53421  53.2167 138.6191 0001642  71.3746 288.7425 15.08838746 88845,6917.884,95.438,540.885,538.613,0.0
